{"type": "FeatureCollection", "features": [ {"type": "Feature", "properties": {"norad_id": 31931, "name": "FENGYUN 1C DEB", "group": "fengyun-1c-debris", "lat": -49.6501183790735, "lon": 117.33678641318919, "alt_km": 793.0603125937923, "timestamp": "2025-12-24T20:42:21.311831+00:00", "meta": {"OBJECT_NAME": "FENGYUN 1C DEB", "OBJECT_ID": "1999-025CMG", "EPOCH": "2025-12-23T02:24:09.253440", "MEAN_MOTION": 13.42631589, "ECCENTRICITY": 0.0422514, "INCLINATION": 97.8147, "RA_OF_ASC_NODE": 305.2675, "ARG_OF_PERICENTER": 242.6444, "MEAN_ANOMALY": 113.1098, "EPHEMERIS_TYPE": 0, "CLASSIFICATION_TYPE": "U", "NORAD_CAT_ID": 31931, "ELEMENT_SET_NO": 999, "REV_AT_EPOCH": 65361, "BSTAR": 0.00051347655, "MEAN_MOTION_DOT": 4.63e-06, "MEAN_MOTION_DDOT": 0}, "tle": {"line1": "1 31931U 99025CMG 25357.10010710  .00000463  00000+0  51348-3 0  9990", "line2": "2 31931  97.8147 305.2675 0422514 242.6444 113.1098 13.42631589653613"}}, "geometry": {"type": "Point", "coordinates": [117.33678641318919, -49.6501183790735]}}, {"type": "Feature", "properties": {"norad_id": 31934, "name": "FENGYUN 1C DEB", "group": "fengyun-1c-debris", "lat": 44.94232577078745, "lon": -120.9724565749683, "alt_km": 525.6699780547651, "timestamp": "2025-12-24T20:42:21.311841+00:00", "meta": {"OBJECT_NAME": "FENGYUN 1C DEB", "OBJECT_ID": "1999-025CMK", "EPOCH": "2025-12-17T14:29:22.520832", "MEAN_MOTION": 15.0735698, "ECCENTRICITY": 0.00367266, "INCLINATION": 98.8801, "RA_OF_ASC_NODE": 41.6776, "ARG_OF_PERICENTER": 217.4543, "MEAN_ANOMALY": 142.4121, "EPHEMERIS_TYPE": 0, "CLASSIFICATION_TYPE": "U", "NORAD_CAT_ID": 31934, "ELEMENT_SET_NO": 999, "REV_AT_EPOCH": 60916, "BSTAR": 0.0026504952, "MEAN_MOTION_DOT": 0.00040819, "MEAN_MOTION_DDOT": 0}, "tle": {"line1": "1 31934U 99025CMK 25351.60373288  .00040819  00000+0  26505-2 0  9999", "line2": "2 31934  98.8801  41.6776 0036726 217.4543 142.4121 15.07356980609168"}}, "geometry": {"type": "Point", "coordinates": [-120.9724565749683, 44.94232577078745]}}, {"type": "Feature", "properties": {"norad_id": 31937, "name": "FENGYUN 1C DEB", "group": "fengyun-1c-debris", "lat": -9.23189524855672, "lon": 91.77188971856148, "alt_km": 638.5056636808504, "timestamp": "2025-12-24T20:42:21.311851+00:00", "meta": {"OBJECT_NAME": "FENGYUN 1C DEB", "OBJECT_ID": "1999-025CMN", "EPOCH": "2025-12-06T23:52:27.149088", "MEAN_MOTION": 14.78022374, "ECCENTRICITY": 0.0162921, "INCLINATION": 99.2561, "RA_OF_ASC_NODE": 69.7316, "ARG_OF_PERICENTER": 315.3928, "MEAN_ANOMALY": 43.4262, "EPHEMERIS_TYPE": 0, "CLASSIFICATION_TYPE": "U", "NORAD_CAT_ID": 31937, "ELEMENT_SET_NO": 999, "REV_AT_EPOCH": 65984, "BSTAR": 0.0011794166, "MEAN_MOTION_DOT": 0.00010567, "MEAN_MOTION_DDOT": 0}, "tle": {"line1": "1 31937U 99025CMN 25340.99475867  .00010567  00000+0  11794-2 0  9999", "line2": "2 31937  99.2561  69.7316 0162921 315.3928  43.4262 14.78022374659842"}}, "geometry": {"type": "Point", "coordinates": [91.77188971856148, -9.23189524855672]}}, {"type": "Feature", "properties": {"norad_id": 31938, "name": "FENGYUN 1C DEB", "group": "fengyun-1c-debris", "lat": -21.854928293263434, "lon": 35.59374523506686, "alt_km": 515.318629619358, "timestamp": "2025-12-24T20:42:21.311861+00:00", "meta": {"OBJECT_NAME": "FENGYUN 1C DEB", "OBJECT_ID": "1999-025CMP", "EPOCH": "2025-12-24T01:32:11.119776", "MEAN_MOTION": 14.95738203, "ECCENTRICITY": 0.01523936, "INCLINATION": 98.9281, "RA_OF_ASC_NODE": 31.069, "ARG_OF_PERICENTER": 29.847, "MEAN_ANOMALY": 331.133, "EPHEMERIS_TYPE": 0, "CLASSIFICATION_TYPE": "U", "NORAD_CAT_ID": 31938, "ELEMENT_SET_NO": 999, "REV_AT_EPOCH": 99305, "BSTAR": 0.00040904432, "MEAN_MOTION_DOT": 5.676e-05, "MEAN_MOTION_DDOT": 0}, "tle": {"line1": "1 31938U 99025CMP 25358.06401759  .00005676  00000+0  40904-3 0  9997", "line2": "2 31938  98.9281  31.0690 0152393  29.8470 331.1330 14.95738203993057"}}, "geometry": {"type": "Point", "coordinates": [35.59374523506686, -21.854928293263434]}}, {"type": "Feature", "properties": {"norad_id": 31944, "name": "FENGYUN 1C DEB", "group": "fengyun-1c-debris", "lat": 27.78714175963079, "lon": -28.415749162202832, "alt_km": 961.6026077913266, "timestamp": "2025-12-24T20:42:21.311871+00:00", "meta": {"OBJECT_NAME": "FENGYUN 1C DEB", "OBJECT_ID": "1999-025CMV", "EPOCH": "2025-12-12T04:22:40.814976", "MEAN_MOTION": 14.11787529, "ECCENTRICITY": 0.0151811, "INCLINATION": 99.2035, "RA_OF_ASC_NODE": 133.6743, "ARG_OF_PERICENTER": 5.8705, "MEAN_ANOMALY": 173.5719, "EPHEMERIS_TYPE": 0, "CLASSIFICATION_TYPE": "U", "NORAD_CAT_ID": 31944, "ELEMENT_SET_NO": 999, "REV_AT_EPOCH": 62902, "BSTAR": 0.0007470391, "MEAN_MOTION_DOT": 1.471e-05, "MEAN_MOTION_DDOT": 0}, "tle": {"line1": "1 31944U 99025CMV 25346.18241684  .00001471  00000+0  74704-3 0  9997", "line2": "2 31944  99.2035 133.6743 0151811   5.8705 173.5719 14.11787529629027"}}, "geometry": {"type": "Point", "coordinates": [-28.415749162202832, 27.78714175963079]}}, {"type": "Feature", "properties": {"norad_id": 31945, "name": "FENGYUN 1C DEB", "group": "fengyun-1c-debris", "lat": 8.220324107759332, "lon": -103.3281429733111, "alt_km": 816.8277841584186, "timestamp": "2025-12-24T20:42:21.311881+00:00", "meta": {"OBJECT_NAME": "FENGYUN 1C DEB", "OBJECT_ID": "1999-025CMW", "EPOCH": "2025-12-21T04:00:39.791808", "MEAN_MOTION": 14.20849644, "ECCENTRICITY": 0.00615069, "INCLINATION": 98.9584, "RA_OF_ASC_NODE": 71.6209, "ARG_OF_PERICENTER": 262.904, "MEAN_ANOMALY": 96.514, "EPHEMERIS_TYPE": 0, "CLASSIFICATION_TYPE": "U", "NORAD_CAT_ID": 31945, "ELEMENT_SET_NO": 999, "REV_AT_EPOCH": 95315, "BSTAR": 0.0010233525, "MEAN_MOTION_DOT": 2.209e-05, "MEAN_MOTION_DDOT": 0}, "tle": {"line1": "1 31945U 99025CMW 25355.16712722  .00002209  00000+0  10234-2 0  9999", "line2": "2 31945  98.9584  71.6209 0061506 262.9040  96.5140 14.20849644953153"}}, "geometry": {"type": "Point", "coordinates": [-103.3281429733111, 8.220324107759332]}}, {"type": "Feature", "properties": {"norad_id": 31946, "name": "FENGYUN 1C DEB", "group": "fengyun-1c-debris", "lat": -35.49665806264112, "lon": -127.3314409013496, "alt_km": 898.1631009530265, "timestamp": "2025-12-24T20:42:21.311891+00:00", "meta": {"OBJECT_NAME": "FENGYUN 1C DEB", "OBJECT_ID": "1999-025CMX", "EPOCH": "2025-12-23T21:39:03.195648", "MEAN_MOTION": 14.16487077, "ECCENTRICITY": 0.0081473, "INCLINATION": 98.8969, "RA_OF_ASC_NODE": 58.1228, "ARG_OF_PERICENTER": 17.293, "MEAN_ANOMALY": 343.099, "EPHEMERIS_TYPE": 0, "CLASSIFICATION_TYPE": "U", "NORAD_CAT_ID": 31946, "ELEMENT_SET_NO": 999, "REV_AT_EPOCH": 64166, "BSTAR": 0.0012861, "MEAN_MOTION_DOT": 2.6e-05, "MEAN_MOTION_DDOT": 0}, "tle": {"line1": "1 31946U 99025CMX 25357.90212032  .00002600  00000+0  12861-2 0  9996", "line2": "2 31946  98.8969  58.1228 0081473  17.2930 343.0990 14.16487077641661"}}, "geometry": {"type": "Point", "coordinates": [-127.3314409013496, -35.49665806264112]}}, {"type": "Feature", "properties": {"norad_id": 31948, "name": "FENGYUN 1C DEB", "group": "fengyun-1c-debris", "lat": 36.26137668878219, "lon": 53.23096157534266, "alt_km": 783.6963467983551, "timestamp": "2025-12-24T20:42:21.311900+00:00", "meta": {"OBJECT_NAME": "FENGYUN 1C DEB", "OBJECT_ID": "1999-025CMZ", "EPOCH": "2025-12-18T10:10:15.056832", "MEAN_MOTION": 14.28329763, "ECCENTRICITY": 0.00234205, "INCLINATION": 99.3923, "RA_OF_ASC_NODE": 53.282, "ARG_OF_PERICENTER": 5.6805, "MEAN_ANOMALY": 59.9549, "EPHEMERIS_TYPE": 0, "CLASSIFICATION_TYPE": "U", "NORAD_CAT_ID": 31948, "ELEMENT_SET_NO": 999, "REV_AT_EPOCH": 95109, "BSTAR": 0.0011732562, "MEAN_MOTION_DOT": 2.889e-05, "MEAN_MOTION_DDOT": 0}, "tle": {"line1": "1 31948U 99025CMZ 25352.42378538  .00002889  00000+0  11733-2 0  9990", "line2": "2 31948  99.3923  53.2820 0023420   5.6805  59.9549 14.28329763951097"}}, "geometry": {"type": "Point", "coordinates": [53.23096157534266, 36.26137668878219]}}, {"type": "Feature", "properties": {"norad_id": 31949, "name": "FENGYUN 1C DEB", "group": "fengyun-1c-debris", "lat": 75.52513757514001, "lon": -51.72509096711408, "alt_km": 841.8451838942001, "timestamp": "2025-12-24T20:42:21.311910+00:00", "meta": {"OBJECT_NAME": "FENGYUN 1C DEB", "OBJECT_ID": "1999-025CNA", "EPOCH": "2025-12-23T05:21:04.784256", "MEAN_MOTION": 14.16925991, "ECCENTRICITY": 0.01261914, "INCLINATION": 98.5469, "RA_OF_ASC_NODE": 342.3284, "ARG_OF_PERICENTER": 182.1147, "MEAN_ANOMALY": 177.951, "EPHEMERIS_TYPE": 0, "CLASSIFICATION_TYPE": "U", "NORAD_CAT_ID": 31949, "ELEMENT_SET_NO": 999, "REV_AT_EPOCH": 95653, "BSTAR": 0.00025831817, "MEAN_MOTION_DOT": 5.19e-06, "MEAN_MOTION_DDOT": 0}, "tle": {"line1": "1 31949U 99025CNA 25357.22297204  .00000519  00000+0  25832-3 0  9998", "line2": "2 31949  98.5469 342.3284 0126191 182.1147 177.9510 14.16925991956534"}}, "geometry": {"type": "Point", "coordinates": [-51.72509096711408, 75.52513757514001]}}, {"type": "Feature", "properties": {"norad_id": 31952, "name": "FENGYUN 1C DEB", "group": "fengyun-1c-debris", "lat": 33.74579707862732, "lon": 110.74405919490954, "alt_km": 772.2630948494852, "timestamp": "2025-12-24T20:42:21.311920+00:00", "meta": {"OBJECT_NAME": "FENGYUN 1C DEB", "OBJECT_ID": "1999-025CND", "EPOCH": "2025-12-21T06:38:16.029024", "MEAN_MOTION": 14.53528655, "ECCENTRICITY": 0.0114099, "INCLINATION": 98.9556, "RA_OF_ASC_NODE": 112.9598, "ARG_OF_PERICENTER": 266.5142, "MEAN_ANOMALY": 92.2996, "EPHEMERIS_TYPE": 0, "CLASSIFICATION_TYPE": "U", "NORAD_CAT_ID": 31952, "ELEMENT_SET_NO": 999, "REV_AT_EPOCH": 97333, "BSTAR": 0.00040334, "MEAN_MOTION_DOT": 1.775e-05, "MEAN_MOTION_DDOT": 0}, "tle": {"line1": "1 31952U 99025CND 25355.27657441  .00001775  00000+0  40334-3 0  9997", "line2": "2 31952  98.9556 112.9598 0114099 266.5142  92.2996 14.53528655973335"}}, "geometry": {"type": "Point", "coordinates": [110.74405919490954, 33.74579707862732]}}]}